COSMOS 1933             
1 18958U 88020A   22082.44632068  .00001276  00000+0  89475-4 0  9998
2 18958  82.5296 223.5134 0012811 115.9965 244.2582 15.04312784831873
SL-3 R/B                
1 19046U 88032B   22082.53880826  .00001218  00000+0  92613-4 0  9991
2 19046  97.3941  85.3094 0037321 169.3909 190.8113 15.03376566833703
SL-16 R/B               
1 19120U 88039B   22082.46545998 -.00000073  00000+0 -11830-4 0  9993
2 19120  71.0134 247.6683 0020529  34.8923 325.3543 14.19239185753029
COSMOS 1953             
1 19210U 88050A   22082.49306602  .00001274  00000+0  83279-4 0  9994
2 19210  82.5153 144.3920 0015357  80.3440 279.9522 15.06846815818616
SL-8 R/B                
1 19257U 88053B   22082.51831122  .00000219  00000+0  81531-4 0  9998
2 19257  74.0465 256.6316 0019488  75.5042 345.6226 14.37569011768550
COSMOS 1975             
1 19573U 88093A   22082.53907078  .00001452  00000+0  98173-4 0  9999
2 19573  82.5168 100.0301 0015195 123.9593 236.3081 15.05732050800352
SL-14 R/B               
1 19574U 88093B   22082.16486406  .00000183  00000+0  19244-4 0  9998
2 19574  82.5322 318.0816 0022600 136.3064 338.1211 14.83445526786293
SL-16 R/B               
1 19650U 88102B   22082.05696248 -.00000006  00000+0  21288-4 0  9995
2 19650  71.0003 316.5247 0012489  49.2423 310.9781 14.15819861721979
INTERCOSMOS 24          
1 20261U 89080A   22082.36038059  .00000498  00000+0  14155-3 0  9993
2 20261  82.6041 323.5189 1202553  41.9133 326.7944 12.56306112484844
SL-14 R/B               
1 20262U 89080C   22082.55126924  .00000095  00000+0  28092-4 0  9993
2 20262  82.5997  21.3247 1235466 248.4489  98.0690 12.49034574479392
DELTA 2 R/B(1)          
1 20303U 89085B   22082.53812232  .00013496  00000+0  37301-3 0  9997
2 20303  35.6385 273.2678 0083539 159.8608 200.5447 15.32736184767259
DELTA 1 R/B             
1 20323U 89089B   22082.42257246  .00000129  00000+0  42504-4 0  9990
2 20323  97.0925 137.8983 0071683   6.5730 353.6390 14.48474549686086
ARIANE 40 R/B           
1 20443U 90005H   22082.42871974  .00000106  00000+0  49209-4 0  9997
2 20443  98.4919 151.2105 0009816 217.3611 142.6895 14.38187367684679
DELTA 2 R/B(1)          
1 20453U 90008B   22082.47019843  .00006123  00000+0  32548-3 0  9997
2 20453  35.6262  53.0060 0272264 289.0074  68.1331 14.88126905707085
COSMOS 2058             
1 20465U 90010A   22082.55183922  .00001334  00000+0  10885-3 0  9991
2 20465  82.4922  13.3555 0014965 182.9733 177.1404 14.98598361724760
SL-14 R/B               
1 20466U 90010B   22082.37567337  .00000232  00000+0  26559-4 0  9990
2 20466  82.5064 184.1243 0021031  25.9698 334.2566 14.81494862714068
SL-14 R/B               
1 20511U 90018B   22082.39498008  .00000176  00000+0  20043-4 0  9998
2 20511  82.5222 133.3834 0017948 161.2126 209.8826 14.80144540708365
HST                     
1 20580U 90037B   22082.54248568  .00001804  00000+0  96902-4 0  9992
2 20580  28.4712  17.8931 0002620 187.2230 337.3323 15.10158146553215
SL-16 R/B               
1 20625U 90046B   22082.45266975 -.00000228  00000+0 -93817-4 0  9997
2 20625  70.9966  96.4454 0015079 334.8127  25.2259 14.14681656643691
COSMOS 2084             
1 20663U 90055A   22082.49423727  .00000633  00000+0  72687-4 0  9993
2 20663  62.7933 177.0948 0108692  40.8453 320.0722 14.92565112719464
SL-6 R/B(2)             
1 20666U 90055D   22082.43793031  .00000884  00000+0  90677-4 0  9995
2 20666  62.7829  92.0422 0125607  63.9563 297.4400 14.92834587721410
SL-8 R/B                
1 20775U 90078B   22082.45189185  .00014573  00000+0  69380-3 0  9998
2 20775  82.9256  54.3630 0557813 355.5098   4.1193 14.38267477598155
SL-8 R/B                
1 21088U 91006B   22082.52502355  .00000068  00000+0  53007-4 0  9998
2 21088  82.9456 166.3590 0023878 126.3154 245.5213 13.77188896564864
OKEAN-3                 
1 21397U 91039A   22082.27402744  .00000959  00000+0  88572-4 0  9994
2 21397  82.5184 284.5484 0017767 169.8495 190.3088 14.93424262648315
COSMOS 2151             
1 21422U 91042A   22082.58173364  .00000795  00000+0  74979-4 0  9998
2 21422  82.5028  29.5701 0012618 237.6525 122.3474 14.92490855646871
SL-14 R/B               
1 21423U 91042B   22082.24390115  .00000176  00000+0  20231-4 0  9992
2 21423  82.4932 135.1871 0016383 313.5007  46.4843 14.79893302638875
ERS-1                   
1 21574U 91050A   22082.47967649  .00000097  00000+0  46969-4 0  9993
2 21574  98.6887  50.3037 0032956 171.4615 188.7139 14.37870236607668
ARIANE 40 R/B           
1 21610U 91050F   22082.44375738  .00000126  00000+0  52741-4 0  9991
2 21610  98.3887 153.6014 0004346 118.4692 252.8122 14.41015960610441
INTERCOSMOS 25          
1 21819U 91086A   22082.48584824  .00000765  00000+0  15468-3 0  9996
2 21819  82.5727 100.2885 1513561 339.3165  15.2412 12.05557019321871
SL-8 R/B                
1 21876U 92008B   22082.49573601 -.00000010  00000+0 -25724-4 0  9998
2 21876  82.9227 263.7042 0034109 214.2619 202.7476 13.75694903510429
SL-8 R/B                
1 21938U 92020B   22082.46198455  .00000027  00000+0  12188-4 0  9994
2 21938  82.9314 148.4520 0029504  19.6672 351.6883 13.75305900502191
COSMOS 2219             
1 22219U 92076A   22082.48314408  .00000044  00000+0  48118-4 0  9999
2 22219  71.0590 162.3120 0020270 251.9797 107.9117 14.13674993513828
SL-16 R/B               
1 22220U 92076B   22082.49901167 -.00000226  00000+0 -89258-4 0  9990
2 22220  71.0033 355.8088 0011633 150.2121  23.5187 14.16486865516879
COSMOS 2221             
1 22236U 92080A   22082.61598525  .00000801  00000+0  83841-4 0  9995
2 22236  82.5094 214.8503 0016093 347.8443  12.2384 14.88296041565065
SL-16 R/B               
1 22285U 92093B   22082.49485671 -.00000254  00000+0 -10665-3 0  9993
2 22285  71.0215 161.3473 0005134 325.3624  34.7163 14.15076226508405
COSMOS 2228             
1 22286U 92094A   22082.53932531  .00000781  00000+0  80911-4 0  9997
2 22286  82.5229 171.9472 0022458 101.1989 259.1755 14.88539657560248
SL-16 R/B               
1 22566U 93016B   22082.20603146  .00000269  00000+0  16322-3 0  9999
2 22566  71.0105  14.4351 0010234 354.2142   5.8861 14.14993924497392
COSMOS 2242             
1 22626U 93024A   22082.38030839  .00000942  00000+0  98712-4 0  9999
2 22626  82.5246 200.4845 0020246 102.0215 258.3274 14.88374810564601
SL-16 R/B               
1 22803U 93059B   22082.56446944 -.00000178  00000+0 -64533-4 0  9999
2 22803  70.9911 181.8261 0019593 256.8080 103.0857 14.16852940474534
ARIANE 40 R/B           
1 22830U 93061H   22082.40958314  .00000069  00000+0  42655-4 0  9992
2 22830  98.6735 145.3576 0010182 228.2228 131.8085 14.31522707486954
COSMOS 2278             
1 23087U 94023A   22082.08448088 -.00000243  00000+0 -10357-3 0  9991
2 23087  71.0545 322.3156 0006478  76.3628 283.8215 14.13850209440160
SL-16 R/B               
1 23088U 94023B   22082.48020430 -.00000270  00000+0 -11552-3 0  9991
2 23088  70.9995 229.3287 0004968 309.0401  51.0279 14.14701571441395
SL-16 R/B               
1 23343U 94074B   22082.41031819  .00000172  00000+0  31604-4 0  9997
2 23343  97.9049 137.1526 0005838 226.4136 144.3650 14.76968835473462
SL-16 R/B               
1 23405U 94077B   22082.45685037  .00000268  00000+0  16242-3 0  9996
2 23405  70.9827 156.3307 0004060 231.8534 128.2224 14.15249754411458
ERS-2                   
1 23560U 95021A   22082.41560760  .00004691  00000+0  18894-3 0  9998
2 23560  98.5134 335.9791 0004386 120.3663 239.8005 15.25467883440191
ARIANE 40+ R/B          
1 23561U 95021B   22082.40409306  .00000129  00000+0  57387-4 0  9999
2 23561  98.6341 139.3319 0007819 136.8907 235.0083 14.38101780411121
SL-16 R/B               
1 23705U 95058B   22082.45796795  .00000301  00000+0  17912-3 0  9996
2 23705  71.0246 337.7267 0012298 175.0961 185.0285 14.15164536363080
SL-16 R/B               
1 24298U 96051B   22082.19466490 -.00000016  00000+0  17660-4 0  9990
2 24298  70.8219 352.8426 0013964 127.6974 232.5414 14.12400961317250
ORBVIEW 2 (SEASTAR)     
1 24883U 97037A   22082.31799389  .00000171  00000+0  77757-4 0  9999
2 24883  98.6662 205.4733 0002509  30.5479 329.5851 14.33691209300961
SL-16 R/B               
1 25400U 98043G   22082.58401662  .00000028  00000+0  30598-4 0  9999
2 25400  98.6665  19.6747 0008825 258.0001 102.0190 14.25501068232783
SL-16 R/B               
1 25407U 98045B   22082.46277597  .00000154  00000+0  10272-3 0  9999
2 25407  71.0143 344.0936 0005371  64.5908 295.5771 14.15855463222232
ISS (ZARYA)             
1 25544U 98067A   22082.75979834  .00005787  00000+0  11115-3 0  9994
2 25544  51.6441  39.6850 0004019 304.7930 125.7496 15.49513012331938
CZ-4B R/B               
1 25732U 99025C   22082.13158976  .00000003  00000+0  22960-4 0  9993
2 25732  98.8664 123.6959 0037563 172.6432 251.3692 14.17716151183022
OKEAN-O                 
1 25860U 99039A   22082.54843257  .00000246  00000+0  42492-4 0  9999
2 25860  98.1508 121.6252 0001116  69.9515 290.1814 14.76857517220579
SL-16 R/B               
1 25861U 99039B   22082.47605536  .00000223  00000+0  37801-4 0  9991
2 25861  98.1883 108.0158 0014389 247.3611 112.6078 14.78745454222799
DELTA 2 R/B             
1 25876U 99041E   22082.24749929  .00000745  00000+0  16724-3 0  9999
2 25876  51.7632 288.2583 0531161  62.1625 303.2084 14.04882136159102
HELIOS 1B               
1 25977U 99064A   22082.49761951  .00000318  00000+0  46629-4 0  9996
2 25977  98.3242 273.2246 0002405  80.3601 279.7882 14.82686626470547
TERRA                   
1 25994U 99068A   22082.51444788  .00000187  00000+0  51324-4 0  9990
2 25994  98.1437 156.3802 0001358  97.7129  27.2782 14.57147884183986
SL-16 R/B               
1 26070U 00006B   22082.45594419  .00000251  00000+0  15270-3 0  9991
2 26070  71.0003 259.9373 0018258 229.0703 130.8839 14.15479160143742
